{
    "links": {
        "self": "http://www.neowsapp.com/rest/v1/neo/3769709?api_key=iIulBulltgU6a56xZRHN4H3l9WmuAYTsLGpBGhQ2"
    },
    "id": "3769709",
    "neo_reference_id": "3769709",
    "name": "(2017 DS15)",
    "designation": "2017 DS15",
    "nasa_jpl_url": "http://ssd.jpl.nasa.gov/sbdb.cgi?sstr=3769709",
    "absolute_magnitude_h": 25.7,
    "estimated_diameter": {
        "kilometers": {
            "estimated_diameter_min": 0.0192555078,
            "estimated_diameter_max": 0.0430566244
        },
        "meters": {
            "estimated_diameter_min": 19.2555078188,
            "estimated_diameter_max": 43.0566244241
        },
        "miles": {
            "estimated_diameter_min": 0.0119648141,
            "estimated_diameter_max": 0.0267541378
        },
        "feet": {
            "estimated_diameter_min": 63.1742402722,
            "estimated_diameter_max": 141.2618956756
        }
    },
    "is_potentially_hazardous_asteroid": false,
    "close_approach_data": [
        {
            "close_approach_date": "1977-07-16",
            "close_approach_date_full": "1977-Jul-16 23:46",
            "epoch_date_close_approach": 237944760000,
            "relative_velocity": {
                "kilometers_per_second": "17.436927926",
                "kilometers_per_hour": "62772.9405335428",
                "miles_per_hour": "39004.6640776338"
            },
            "miss_distance": {
                "astronomical": "0.0502501058",
                "lunar": "19.5472911562",
                "kilometers": "7517308.794954646",
                "miles": "4671039.0862242748"
            },
            "orbiting_body": "Venus"
        },
        {
            "close_approach_date": "2016-12-08",
            "close_approach_date_full": "2016-Dec-08 16:09",
            "epoch_date_close_approach": 1481213340000,
            "relative_velocity": {
                "kilometers_per_second": "14.1573212757",
                "kilometers_per_hour": "50966.3565923634",
                "miles_per_hour": "31668.511961516"
            },
            "miss_distance": {
                "astronomical": "0.0672745775",
                "lunar": "26.1698106475",
                "kilometers": "10064133.499149925",
                "miles": "6253562.574821965"
            },
            "orbiting_body": "Venus"
        },
        {
            "close_approach_date": "2017-02-13",
            "close_approach_date_full": "2017-Feb-13 22:27",
            "epoch_date_close_approach": 1487024820000,
            "relative_velocity": {
                "kilometers_per_second": "19.1708019955",
                "kilometers_per_hour": "69014.8871836391",
                "miles_per_hour": "42883.166983634"
            },
            "miss_distance": {
                "astronomical": "0.0167568306",
                "lunar": "6.5184071034",
                "kilometers": "2506786.165710822",
                "miles": "1557644.6944284636"
            },
            "orbiting_body": "Earth"
        }
    ],
    "orbital_data": {
        "orbit_id": "3",
        "orbit_determination_date": "2017-04-06 08:20:08",
        "first_observation_date": "2017-02-18",
        "last_observation_date": "2017-02-22",
        "data_arc_in_days": 4,
        "observations_used": 35,
        "orbit_uncertainty": "8",
        "minimum_orbit_intersection": ".00515687",
        "jupiter_tisserand_invariant": "3.956",
        "epoch_osculation": "2457805.5",
        "eccentricity": ".6386601655725087",
        "semi_major_axis": "1.690012098964846",
        "inclination": ".9594443118303136",
        "ascending_node_longitude": "342.3325827430969",
        "orbital_period": "802.4780231375928",
        "perihelion_distance": ".6106686920204144",
        "perihelion_argument": "73.11728688482955",
        "aphelion_distance": "2.769355505909277",
        "perihelion_time": "2457750.260285838759",
        "mean_anomaly": "24.78111116400886",
        "mean_motion": ".4486104162609253",
        "equinox": "J2000",
        "orbit_class": {
            "orbit_class_type": "APO",
            "orbit_class_description": "Near-Earth asteroid orbits which cross the Earth’s orbit similar to that of 1862 Apollo",
            "orbit_class_range": "a (semi-major axis) > 1.0 AU; q (perihelion) < 1.017 AU"
        }
    },
    "is_sentry_object": false
}